[{"OBJECT_NAME":"UMBRA-12","OBJECT_ID":"2026-004J","EPOCH":"2026-03-09T23:28:09.251904","MEAN_MOTION":14.88319852,"ECCENTRICITY":0.00079128,"INCLINATION":97.8019,"RA_OF_ASC_NODE":69.1965,"ARG_OF_PERICENTER":97.182,"MEAN_ANOMALY":263.0297,"EPHEMERIS_TYPE":0,"CLASSIFICATION_TYPE":"U","NORAD_CAT_ID":67371,"ELEMENT_SET_NO":999,"REV_AT_EPOCH":854,"BSTAR":0.00076492026,"MEAN_MOTION_DOT":7.029e-5,"MEAN_MOTION_DDOT":0},{"OBJECT_NAME":"SL-14 R\/B","OBJECT_ID":"1982-059B","EPOCH":"2026-03-09T21:50:13.047072","MEAN_MOTION":14.87168915,"ECCENTRICITY":0.0018414,"INCLINATION":82.5118,"RA_OF_ASC_NODE":20.8616,"ARG_OF_PERICENTER":25.4623,"MEAN_ANOMALY":334.7497,"EPHEMERIS_TYPE":0,"CLASSIFICATION_TYPE":"U","NORAD_CAT_ID":13272,"ELEMENT_SET_NO":999,"REV_AT_EPOCH":34397,"BSTAR":8.7882073e-5,"MEAN_MOTION_DOT":8.17e-6,"MEAN_MOTION_DDOT":0}]
